[{"OBJECT_NAME":"ONEWEB-0083","OBJECT_ID":"2020-020M","EPOCH":"2026-03-24T03:18:16.519680","MEAN_MOTION":13.11417958,"ECCENTRICITY":0.00019235,"INCLINATION":87.8904,"RA_OF_ASC_NODE":37.9613,"ARG_OF_PERICENTER":80.7334,"MEAN_ANOMALY":279.4011,"EPHEMERIS_TYPE":0,"CLASSIFICATION_TYPE":"U","NORAD_CAT_ID":45435,"ELEMENT_SET_NO":999,"REV_AT_EPOCH":29152,"BSTAR":-0.0014896782,"MEAN_MOTION_DOT":-5.15e-6,"MEAN_MOTION_DDOT":0},{"OBJECT_NAME":"ONEWEB-0095","OBJECT_ID":"2020-020N","EPOCH":"2026-03-24T03:05:00.819744","MEAN_MOTION":13.11415507,"ECCENTRICITY":0.00018206,"INCLINATION":87.8898,"RA_OF_ASC_NODE":37.9708,"ARG_OF_PERICENTER":56.5135,"MEAN_ANOMALY":303.6166,"EPHEMERIS_TYPE":0,"CLASSIFICATION_TYPE":"U","NORAD_CAT_ID":45436,"ELEMENT_SET_NO":999,"REV_AT_EPOCH":29152,"BSTAR":-0.0016771849,"MEAN_MOTION_DOT":-5.82e-6,"MEAN_MOTION_DDOT":0},{"OBJECT_NAME":"ONEWEB-0092","OBJECT_ID":"2020-020P","EPOCH":"2026-03-24T02:24:34.271424","MEAN_MOTION":13.11415321,"ECCENTRICITY":0.00016168,"INCLINATION":87.8894,"RA_OF_ASC_NODE":37.9767,"ARG_OF_PERICENTER":72.553,"MEAN_ANOMALY":287.5774,"EPHEMERIS_TYPE":0,"CLASSIFICATION_TYPE":"U","NORAD_CAT_ID":45437,"ELEMENT_SET_NO":999,"REV_AT_EPOCH":29163,"BSTAR":0.0010807491,"MEAN_MOTION_DOT":3.96e-6,"MEAN_MOTION_DDOT":0},{"OBJECT_NAME":"ONEWEB-0085","OBJECT_ID":"2020-020Q","EPOCH":"2026-03-24T03:17:02.612256","MEAN_MOTION":13.11417946,"ECCENTRICITY":0.00018336,"INCLINATION":87.8895,"RA_OF_ASC_NODE":37.9732,"ARG_OF_PERICENTER":80.1478,"MEAN_ANOMALY":279.9857,"EPHEMERIS_TYPE":0,"CLASSIFICATION_TYPE":"U","NORAD_CAT_ID":45438,"ELEMENT_SET_NO":999,"REV_AT_EPOCH":29152,"BSTAR":-0.0013045859,"MEAN_MOTION_DOT":-4.5e-6,"MEAN_MOTION_DDOT":0},{"OBJECT_NAME":"ONEWEB-0096","OBJECT_ID":"2020-020R","EPOCH":"2026-03-24T03:19:29.640864","MEAN_MOTION":13.11417939,"ECCENTRICITY":0.00018148,"INCLINATION":87.89,"RA_OF_ASC_NODE":37.9617,"ARG_OF_PERICENTER":82.2031,"MEAN_ANOMALY":277.9303,"EPHEMERIS_TYPE":0,"CLASSIFICATION_TYPE":"U","NORAD_CAT_ID":45439,"ELEMENT_SET_NO":999,"REV_AT_EPOCH":29151,"BSTAR":-0.00097489599,"MEAN_MOTION_DOT":-3.33e-6,"MEAN_MOTION_DDOT":0},{"OBJECT_NAME":"ONEWEB-0037","OBJECT_ID":"2020-020S","EPOCH":"2026-03-23T21:21:48.408768","MEAN_MOTION":13.11416425,"ECCENTRICITY":0.00018215,"INCLINATION":87.8903,"RA_OF_ASC_NODE":37.988,"ARG_OF_PERICENTER":77.6507,"MEAN_ANOMALY":282.4825,"EPHEMERIS_TYPE":0,"CLASSIFICATION_TYPE":"U","NORAD_CAT_ID":45440,"ELEMENT_SET_NO":999,"REV_AT_EPOCH":29151,"BSTAR":-0.0010464301,"MEAN_MOTION_DOT":-3.58e-6,"MEAN_MOTION_DDOT":0},{"OBJECT_NAME":"ONEWEB-0042","OBJECT_ID":"2020-020T","EPOCH":"2026-03-24T03:04:37.763904","MEAN_MOTION":13.11422203,"ECCENTRICITY":0.00017814,"INCLINATION":87.8898,"RA_OF_ASC_NODE":37.9609,"ARG_OF_PERICENTER":81.2226,"MEAN_ANOMALY":278.9104,"EPHEMERIS_TYPE":0,"CLASSIFICATION_TYPE":"U","NORAD_CAT_ID":45441,"ELEMENT_SET_NO":999,"REV_AT_EPOCH":29151,"BSTAR":-0.0049116017,"MEAN_MOTION_DOT":-1.728e-5,"MEAN_MOTION_DDOT":0},{"OBJECT_NAME":"ONEWEB-0098","OBJECT_ID":"2020-020U","EPOCH":"2026-03-24T02:58:44.334336","MEAN_MOTION":13.11415567,"ECCENTRICITY":0.00019317,"INCLINATION":87.8894,"RA_OF_ASC_NODE":37.973,"ARG_OF_PERICENTER":80.7471,"MEAN_ANOMALY":279.3875,"EPHEMERIS_TYPE":0,"CLASSIFICATION_TYPE":"U","NORAD_CAT_ID":45442,"ELEMENT_SET_NO":999,"REV_AT_EPOCH":29149,"BSTAR":-0.0016015633,"MEAN_MOTION_DOT":-5.55e-6,"MEAN_MOTION_DDOT":0},{"OBJECT_NAME":"ONEWEB-0055","OBJECT_ID":"2020-020V","EPOCH":"2026-03-24T02:34:19.671168","MEAN_MOTION":13.11415295,"ECCENTRICITY":0.00019327,"INCLINATION":87.8895,"RA_OF_ASC_NODE":37.9767,"ARG_OF_PERICENTER":80.94,"MEAN_ANOMALY":279.1947,"EPHEMERIS_TYPE":0,"CLASSIFICATION_TYPE":"U","NORAD_CAT_ID":45443,"ELEMENT_SET_NO":999,"REV_AT_EPOCH":29146,"BSTAR":0.00033868667,"MEAN_MOTION_DOT":1.33e-6,"MEAN_MOTION_DDOT":0},{"OBJECT_NAME":"ONEWEB-0093","OBJECT_ID":"2020-020W","EPOCH":"2026-03-24T07:28:44.703264","MEAN_MOTION":13.11418401,"ECCENTRICITY":0.00015322,"INCLINATION":87.8894,"RA_OF_ASC_NODE":37.926,"ARG_OF_PERICENTER":89.1981,"MEAN_ANOMALY":270.9322,"EPHEMERIS_TYPE":0,"CLASSIFICATION_TYPE":"U","NORAD_CAT_ID":45444,"ELEMENT_SET_NO":999,"REV_AT_EPOCH":29155,"BSTAR":0.0012581958,"MEAN_MOTION_DOT":4.59e-6,"MEAN_MOTION_DDOT":0},{"OBJECT_NAME":"ONEWEB-0029","OBJECT_ID":"2020-020X","EPOCH":"2026-03-24T02:22:07.328352","MEAN_MOTION":13.11416319,"ECCENTRICITY":0.00018063,"INCLINATION":87.8894,"RA_OF_ASC_NODE":37.9796,"ARG_OF_PERICENTER":84.5111,"MEAN_ANOMALY":275.6223,"EPHEMERIS_TYPE":0,"CLASSIFICATION_TYPE":"U","NORAD_CAT_ID":45445,"ELEMENT_SET_NO":999,"REV_AT_EPOCH":29150,"BSTAR":0.0010897142,"MEAN_MOTION_DOT":3.99e-6,"MEAN_MOTION_DDOT":0},{"OBJECT_NAME":"ONEWEB-0068","OBJECT_ID":"2020-020Y","EPOCH":"2026-03-24T07:28:20.435232","MEAN_MOTION":13.11418356,"ECCENTRICITY":0.00017908,"INCLINATION":87.8898,"RA_OF_ASC_NODE":37.9286,"ARG_OF_PERICENTER":86.1326,"MEAN_ANOMALY":274.0007,"EPHEMERIS_TYPE":0,"CLASSIFICATION_TYPE":"U","NORAD_CAT_ID":45446,"ELEMENT_SET_NO":999,"REV_AT_EPOCH":29147,"BSTAR":0.0011837813,"MEAN_MOTION_DOT":4.32e-6,"MEAN_MOTION_DDOT":0},{"OBJECT_NAME":"ONEWEB-0046","OBJECT_ID":"2020-020Z","EPOCH":"2026-03-24T07:16:17.668992","MEAN_MOTION":13.11417184,"ECCENTRICITY":0.00016366,"INCLINATION":87.89,"RA_OF_ASC_NODE":37.937,"ARG_OF_PERICENTER":80.6683,"MEAN_ANOMALY":279.463,"EPHEMERIS_TYPE":0,"CLASSIFICATION_TYPE":"U","NORAD_CAT_ID":45447,"ELEMENT_SET_NO":999,"REV_AT_EPOCH":29148,"BSTAR":0.00028177124,"MEAN_MOTION_DOT":1.13e-6,"MEAN_MOTION_DDOT":0},{"OBJECT_NAME":"ONEWEB-0063","OBJECT_ID":"2020-020AA","EPOCH":"2026-03-24T02:28:13.554624","MEAN_MOTION":13.11415566,"ECCENTRICITY":0.00016821,"INCLINATION":87.8896,"RA_OF_ASC_NODE":37.9746,"ARG_OF_PERICENTER":74.6542,"MEAN_ANOMALY":285.4772,"EPHEMERIS_TYPE":0,"CLASSIFICATION_TYPE":"U","NORAD_CAT_ID":45448,"ELEMENT_SET_NO":999,"REV_AT_EPOCH":29154,"BSTAR":0.00087736593,"MEAN_MOTION_DOT":3.24e-6,"MEAN_MOTION_DDOT":0},{"OBJECT_NAME":"ONEWEB-0019","OBJECT_ID":"2020-020AB","EPOCH":"2026-03-24T07:03:54.432864","MEAN_MOTION":13.11418724,"ECCENTRICITY":0.00020414,"INCLINATION":87.8891,"RA_OF_ASC_NODE":37.929,"ARG_OF_PERICENTER":80.1527,"MEAN_ANOMALY":279.9832,"EPHEMERIS_TYPE":0,"CLASSIFICATION_TYPE":"U","NORAD_CAT_ID":45449,"ELEMENT_SET_NO":999,"REV_AT_EPOCH":29141,"BSTAR":-0.00077619401,"MEAN_MOTION_DOT":-2.62e-6,"MEAN_MOTION_DDOT":0},{"OBJECT_NAME":"ONEWEB-0094","OBJECT_ID":"2020-020AC","EPOCH":"2026-03-23T18:35:38.755104","MEAN_MOTION":13.17648472,"ECCENTRICITY":0.00019704,"INCLINATION":87.9185,"RA_OF_ASC_NODE":22.8012,"ARG_OF_PERICENTER":85.2055,"MEAN_ANOMALY":274.9302,"EPHEMERIS_TYPE":0,"CLASSIFICATION_TYPE":"U","NORAD_CAT_ID":45450,"ELEMENT_SET_NO":999,"REV_AT_EPOCH":29506,"BSTAR":1.5590282e-5,"MEAN_MOTION_DOT":1.9e-7,"MEAN_MOTION_DDOT":0},{"OBJECT_NAME":"ONEWEB-0087","OBJECT_ID":"2020-020AD","EPOCH":"2026-03-24T02:42:40.362624","MEAN_MOTION":13.11414847,"ECCENTRICITY":0.00017877,"INCLINATION":87.8907,"RA_OF_ASC_NODE":37.9401,"ARG_OF_PERICENTER":89.8379,"MEAN_ANOMALY":270.2954,"EPHEMERIS_TYPE":0,"CLASSIFICATION_TYPE":"U","NORAD_CAT_ID":45451,"ELEMENT_SET_NO":999,"REV_AT_EPOCH":29143,"BSTAR":-0.00045868042,"MEAN_MOTION_DOT":-1.5e-6,"MEAN_MOTION_DDOT":0}]
