ONEWEB-0083             
1 45435U 20020M   26083.13769120 -.00000515  00000+0 -14897-2 0  9996
2 45435  87.8904  37.9613 0001923  80.7334 279.4011 13.11417958291521
ONEWEB-0095             
1 45436U 20020N   26083.12848171 -.00000582  00000+0 -16772-2 0  9998
2 45436  87.8898  37.9708 0001820  56.5135 303.6166 13.11415507291524
ONEWEB-0092             
1 45437U 20020P   26083.10039666  .00000396  00000+0  10807-2 0  9992
2 45437  87.8894  37.9767 0001616  72.5530 287.5774 13.11415321291637
ONEWEB-0085             
1 45438U 20020Q   26083.13683579 -.00000450  00000+0 -13046-2 0  9995
2 45438  87.8895  37.9732 0001833  80.1478 279.9857 13.11417946291528
ONEWEB-0096             
1 45439U 20020R   26083.13853751 -.00000333  00000+0 -97490-3 0  9993
2 45439  87.8900  37.9617 0001814  82.2031 277.9303 13.11417939291510
ONEWEB-0037             
1 45440U 20020S   26082.89014362 -.00000358  00000+0 -10464-2 0  9996
2 45440  87.8903  37.9880 0001821  77.6507 282.4825 13.11416425291510
ONEWEB-0042             
1 45441U 20020T   26083.12821486 -.00001728  00000+0 -49116-2 0  9995
2 45441  87.8898  37.9609 0001781  81.2226 278.9104 13.11422203291518
ONEWEB-0098             
1 45442U 20020U   26083.12412424 -.00000555  00000+0 -16016-2 0  9994
2 45442  87.8894  37.9730 0001931  80.7471 279.3875 13.11415567291495
ONEWEB-0055             
1 45443U 20020V   26083.10717212  .00000133  00000+0  33869-3 0  9992
2 45443  87.8895  37.9767 0001932  80.9400 279.1947 13.11415295291465
ONEWEB-0093             
1 45444U 20020W   26083.31162851  .00000459  00000+0  12582-2 0  9998
2 45444  87.8894  37.9260 0001532  89.1981 270.9322 13.11418401291552
ONEWEB-0029             
1 45445U 20020X   26083.09869593  .00000399  00000+0  10897-2 0  9991
2 45445  87.8894  37.9796 0001806  84.5111 275.6223 13.11416319291508
ONEWEB-0068             
1 45446U 20020Y   26083.31134763  .00000432  00000+0  11838-2 0  9995
2 45446  87.8898  37.9286 0001790  86.1326 274.0007 13.11418356291477
ONEWEB-0046             
1 45447U 20020Z   26083.30298228  .00000113  00000+0  28177-3 0  9993
2 45447  87.8900  37.9370 0001636  80.6683 279.4630 13.11417184291480
ONEWEB-0063             
1 45448U 20020AA  26083.10293466  .00000324  00000+0  87737-3 0  9992
2 45448  87.8896  37.9746 0001682  74.6542 285.4772 13.11415566291543
ONEWEB-0019             
1 45449U 20020AB  26083.29438001 -.00000262  00000+0 -77619-3 0  9990
2 45449  87.8891  37.9290 0002041  80.1527 279.9832 13.11418724291418
ONEWEB-0094             
1 45450U 20020AC  26082.77475411  .00000019  00000+0  15590-4 0  9999
2 45450  87.9185  22.8012 0001970  85.2055 274.9302 13.17648472295067
ONEWEB-0087             
1 45451U 20020AD  26083.11296716 -.00000150  00000+0 -45868-3 0  9996
2 45451  87.8907  37.9401 0001787  89.8379 270.2954 13.11414847291433
